ONEWEB-0153             
1 48044U 21025C   24025.78974320 -.00000257  00000+0 -73974-3 0  9991
2 48044  87.9015 134.0673 0001659 105.5075 254.6237 13.13469023138890
ONEWEB-0154             
1 48045U 21025D   24025.78657285 -.00000388  00000+0 -10987-2 0  9999
2 48045  87.9010 134.0834 0001694 103.2058 256.9261 13.13469608138857
ONEWEB-0116             
1 48046U 21025E   24025.82784159  .00000284  00000+0  74373-3 0  9999
2 48046  87.9016 134.0395 0001808 111.2690 248.8632 13.13471549139001
ONEWEB-0150             
1 48047U 21025F   24025.80244559 -.00000040  00000+0 -14554-3 0  9990
2 48047  87.9007 134.0720 0001506 105.7247 254.4048 13.13472602138896
ONEWEB-0107             
1 48048U 21025G   24025.80403917  .00000004  00000+0 -24861-4 0  9998
2 48048  87.9008 134.0697 0001372 100.7534 259.3750 13.13471249138874
ONEWEB-0101             
1 48049U 21025H   24025.84371078 -.00000031  00000+0 -11916-3 0  9992
2 48049  87.9016 134.0695 0001688  99.8017 260.3302 13.13469911138852
ONEWEB-0113             
1 48050U 21025J   24025.82149434  .00000379  00000+0  10032-2 0  9991
2 48050  87.9014 134.0570 0001803 110.8440 249.2883 13.13469806138939
ONEWEB-0112             
1 48051U 21025K   24025.80879501  .00000114  00000+0  27670-3 0  9999
2 48051  87.9008 134.0668 0001598 110.0005 250.1296 13.13472328138944
